{"type": "FeatureCollection", "features": [ {"type": "Feature", "properties": {"norad_id": 34626, "name": "COSMOS 2251 DEB", "group": "cosmos-2251-debris", "lat": -4.895619361558434, "lon": 159.1522589605657, "alt_km": 666.009792841056, "timestamp": "2025-12-05T14:45:15.692376+00:00", "meta": {"OBJECT_NAME": "COSMOS 2251 DEB", "OBJECT_ID": "1993-036WX", "EPOCH": "2025-12-03T10:25:41.739168", "MEAN_MOTION": 14.72014634, "ECCENTRICITY": 0.00261929, "INCLINATION": 74.048, "RA_OF_ASC_NODE": 341.9842, "ARG_OF_PERICENTER": 73.1994, "MEAN_ANOMALY": 82.4621, "EPHEMERIS_TYPE": 0, "CLASSIFICATION_TYPE": "U", "NORAD_CAT_ID": 34626, "ELEMENT_SET_NO": 999, "REV_AT_EPOCH": 89007, "BSTAR": 0.0012403674, "MEAN_MOTION_DOT": 7.808e-05, "MEAN_MOTION_DDOT": 0}, "tle": {"line1": "1 34626U 93036WX  25337.43451087  .00007808  00000+0  12404-2 0  9999", "line2": "2 34626  74.0480 341.9842 0026192  73.1994  82.4621 14.72014634890079"}}, "geometry": {"type": "Point", "coordinates": [159.1522589605657, -4.895619361558434]}}, {"type": "Feature", "properties": {"norad_id": 34634, "name": "COSMOS 2251 DEB", "group": "cosmos-2251-debris", "lat": 50.17155931827096, "lon": 68.51216648914438, "alt_km": 710.3567946603989, "timestamp": "2025-12-05T14:45:15.692388+00:00", "meta": {"OBJECT_NAME": "COSMOS 2251 DEB", "OBJECT_ID": "1993-036XF", "EPOCH": "2025-12-04T16:07:00.737184", "MEAN_MOTION": 14.55619718, "ECCENTRICITY": 0.0044642, "INCLINATION": 74.0532, "RA_OF_ASC_NODE": 50.2471, "ARG_OF_PERICENTER": 159.9305, "MEAN_ANOMALY": 352.9179, "EPHEMERIS_TYPE": 0, "CLASSIFICATION_TYPE": "U", "NORAD_CAT_ID": 34634, "ELEMENT_SET_NO": 999, "REV_AT_EPOCH": 88664, "BSTAR": 0.00082835, "MEAN_MOTION_DOT": 3.637e-05, "MEAN_MOTION_DDOT": 0}, "tle": {"line1": "1 34634U 93036XF  25338.67153631  .00003637  00000+0  82835-3 0  9991", "line2": "2 34634  74.0532  50.2471 0044642 159.9305 352.9179 14.55619718886649"}}, "geometry": {"type": "Point", "coordinates": [68.51216648914438, 50.17155931827096]}}, {"type": "Feature", "properties": {"norad_id": 34635, "name": "COSMOS 2251 DEB", "group": "cosmos-2251-debris", "lat": -43.86681806327393, "lon": 68.52208324617537, "alt_km": 692.7102399911, "timestamp": "2025-12-05T14:45:15.692403+00:00", "meta": {"OBJECT_NAME": "COSMOS 2251 DEB", "OBJECT_ID": "1993-036XG", "EPOCH": "2025-12-04T16:23:08.181312", "MEAN_MOTION": 14.68073827, "ECCENTRICITY": 0.0029436, "INCLINATION": 74.0459, "RA_OF_ASC_NODE": 86.2821, "ARG_OF_PERICENTER": 157.6397, "MEAN_ANOMALY": 272.3368, "EPHEMERIS_TYPE": 0, "CLASSIFICATION_TYPE": "U", "NORAD_CAT_ID": 34635, "ELEMENT_SET_NO": 999, "REV_AT_EPOCH": 73101, "BSTAR": 0.0033923, "MEAN_MOTION_DOT": 0.0001963, "MEAN_MOTION_DDOT": 0}, "tle": {"line1": "1 34635U 93036XG  25338.68273358  .00019630  00000+0  33923-2 0  9995", "line2": "2 34635  74.0459  86.2821 0029436 157.6397 272.3368 14.68073827731010"}}, "geometry": {"type": "Point", "coordinates": [68.52208324617537, -43.86681806327393]}}, {"type": "Feature", "properties": {"norad_id": 34637, "name": "COSMOS 2251 DEB", "group": "cosmos-2251-debris", "lat": -7.122822526363192, "lon": 112.69582815455662, "alt_km": 731.5210123548768, "timestamp": "2025-12-05T14:45:15.692414+00:00", "meta": {"OBJECT_NAME": "COSMOS 2251 DEB", "OBJECT_ID": "1993-036XJ", "EPOCH": "2025-12-03T08:38:20.779008", "MEAN_MOTION": 14.59934348, "ECCENTRICITY": 0.0050664, "INCLINATION": 74.0477, "RA_OF_ASC_NODE": 119.0417, "ARG_OF_PERICENTER": 191.6838, "MEAN_ANOMALY": 194.9044, "EPHEMERIS_TYPE": 0, "CLASSIFICATION_TYPE": "U", "NORAD_CAT_ID": 34637, "ELEMENT_SET_NO": 999, "REV_AT_EPOCH": 88390, "BSTAR": 0.0016283, "MEAN_MOTION_DOT": 7.923e-05, "MEAN_MOTION_DDOT": 0}, "tle": {"line1": "1 34637U 93036XJ  25337.35996272  .00007923  00000+0  16283-2 0  9999", "line2": "2 34637  74.0477 119.0417 0050664 191.6838 194.9044 14.59934348883903"}}, "geometry": {"type": "Point", "coordinates": [112.69582815455662, -7.122822526363192]}}, {"type": "Feature", "properties": {"norad_id": 34641, "name": "COSMOS 2251 DEB", "group": "cosmos-2251-debris", "lat": -10.03405832182484, "lon": -81.82788620957359, "alt_km": 735.7440720650329, "timestamp": "2025-12-05T14:45:15.692424+00:00", "meta": {"OBJECT_NAME": "COSMOS 2251 DEB", "OBJECT_ID": "1993-036XN", "EPOCH": "2025-12-04T14:50:18.293856", "MEAN_MOTION": 14.5189708, "ECCENTRICITY": 0.0017649, "INCLINATION": 73.839, "RA_OF_ASC_NODE": 97.1298, "ARG_OF_PERICENTER": 14.5376, "MEAN_ANOMALY": 9.3274, "EPHEMERIS_TYPE": 0, "CLASSIFICATION_TYPE": "U", "NORAD_CAT_ID": 34641, "ELEMENT_SET_NO": 999, "REV_AT_EPOCH": 88138, "BSTAR": 0.0023924, "MEAN_MOTION_DOT": 9.648e-05, "MEAN_MOTION_DDOT": 0}, "tle": {"line1": "1 34641U 93036XN  25338.61826729  .00009648  00000+0  23924-2 0  9999", "line2": "2 34641  73.8390  97.1298 0017649  14.5376   9.3274 14.51897080881385"}}, "geometry": {"type": "Point", "coordinates": [-81.82788620957359, -10.03405832182484]}}, {"type": "Feature", "properties": {"norad_id": 34642, "name": "COSMOS 2251 DEB", "group": "cosmos-2251-debris", "lat": -13.25856330832099, "lon": 176.01955145195487, "alt_km": 759.0268553747792, "timestamp": "2025-12-05T14:45:15.692434+00:00", "meta": {"OBJECT_NAME": "COSMOS 2251 DEB", "OBJECT_ID": "1993-036XP", "EPOCH": "2025-12-03T19:46:36.748416", "MEAN_MOTION": 13.98929953, "ECCENTRICITY": 0.02080507, "INCLINATION": 74.0052, "RA_OF_ASC_NODE": 355.2445, "ARG_OF_PERICENTER": 177.1299, "MEAN_ANOMALY": 0.8483, "EPHEMERIS_TYPE": 0, "CLASSIFICATION_TYPE": "U", "NORAD_CAT_ID": 34642, "ELEMENT_SET_NO": 999, "REV_AT_EPOCH": 85168, "BSTAR": 0.001499188, "MEAN_MOTION_DOT": 2.582e-05, "MEAN_MOTION_DDOT": 0}, "tle": {"line1": "1 34642U 93036XP  25337.82403644  .00002582  00000+0  14992-2 0  9994", "line2": "2 34642  74.0052 355.2445 0208050 177.1299   0.8483 13.98929953851687"}}, "geometry": {"type": "Point", "coordinates": [176.01955145195487, -13.25856330832099]}}, {"type": "Feature", "properties": {"norad_id": 34671, "name": "COSMOS 2251 DEB", "group": "cosmos-2251-debris", "lat": -73.62937580123528, "lon": 70.84186250435864, "alt_km": 672.656812741694, "timestamp": "2025-12-05T14:45:15.692444+00:00", "meta": {"OBJECT_NAME": "COSMOS 2251 DEB", "OBJECT_ID": "1993-036XR", "EPOCH": "2025-12-04T13:13:00.352992", "MEAN_MOTION": 14.66694104, "ECCENTRICITY": 0.0012043, "INCLINATION": 74.0249, "RA_OF_ASC_NODE": 150.1005, "ARG_OF_PERICENTER": 228.9796, "MEAN_ANOMALY": 188.3711, "EPHEMERIS_TYPE": 0, "CLASSIFICATION_TYPE": "U", "NORAD_CAT_ID": 34671, "ELEMENT_SET_NO": 999, "REV_AT_EPOCH": 88177, "BSTAR": 0.0035848, "MEAN_MOTION_DOT": 0.00020003, "MEAN_MOTION_DDOT": 0}, "tle": {"line1": "1 34671U 93036XR  25338.55069853  .00020003  00000+0  35848-2 0  9998", "line2": "2 34671  74.0249 150.1005 0012043 228.9796 188.3711 14.66694104881775"}}, "geometry": {"type": "Point", "coordinates": [70.84186250435864, -73.62937580123528]}}, {"type": "Feature", "properties": {"norad_id": 34672, "name": "COSMOS 2251 DEB", "group": "cosmos-2251-debris", "lat": 25.88694604772755, "lon": 130.69639955728988, "alt_km": 777.7316734566084, "timestamp": "2025-12-05T14:45:15.692455+00:00", "meta": {"OBJECT_NAME": "COSMOS 2251 DEB", "OBJECT_ID": "1993-036XS", "EPOCH": "2025-12-03T05:16:26.844096", "MEAN_MOTION": 14.36383689, "ECCENTRICITY": 0.0023434, "INCLINATION": 74.0334, "RA_OF_ASC_NODE": 323.0813, "ARG_OF_PERICENTER": 37.198, "MEAN_ANOMALY": 335.8708, "EPHEMERIS_TYPE": 0, "CLASSIFICATION_TYPE": "U", "NORAD_CAT_ID": 34672, "ELEMENT_SET_NO": 999, "REV_AT_EPOCH": 65041, "BSTAR": 0.00037825, "MEAN_MOTION_DOT": 1.085e-05, "MEAN_MOTION_DDOT": 0}, "tle": {"line1": "1 34672U 93036XS  25337.21975514  .00001085  00000+0  37825-3 0  9998", "line2": "2 34672  74.0334 323.0813 0023434  37.1980 335.8708 14.36383689650410"}}, "geometry": {"type": "Point", "coordinates": [130.69639955728988, 25.88694604772755]}}, {"type": "Feature", "properties": {"norad_id": 34678, "name": "COSMOS 2251 DEB", "group": "cosmos-2251-debris", "lat": 39.75152170271966, "lon": -175.12396698667104, "alt_km": 781.5448536686563, "timestamp": "2025-12-05T14:45:15.692465+00:00", "meta": {"OBJECT_NAME": "COSMOS 2251 DEB", "OBJECT_ID": "1993-036XY", "EPOCH": "2025-12-04T13:37:47.366112", "MEAN_MOTION": 14.30062964, "ECCENTRICITY": 0.0024261, "INCLINATION": 74.0382, "RA_OF_ASC_NODE": 20.5498, "ARG_OF_PERICENTER": 72.3385, "MEAN_ANOMALY": 78.3361, "EPHEMERIS_TYPE": 0, "CLASSIFICATION_TYPE": "U", "NORAD_CAT_ID": 34678, "ELEMENT_SET_NO": 999, "REV_AT_EPOCH": 87262, "BSTAR": 5.8793e-05, "MEAN_MOTION_DOT": 1.27e-06, "MEAN_MOTION_DDOT": 0}, "tle": {"line1": "1 34678U 93036XY  25338.56790933  .00000127  00000+0  58793-4 0  9997", "line2": "2 34678  74.0382  20.5498 0024261  72.3385  78.3361 14.30062964872623"}}, "geometry": {"type": "Point", "coordinates": [-175.12396698667104, 39.75152170271966]}}, {"type": "Feature", "properties": {"norad_id": 34680, "name": "COSMOS 2251 DEB", "group": "cosmos-2251-debris", "lat": -1.6251028592847039, "lon": 142.99610025325603, "alt_km": 697.1474968248731, "timestamp": "2025-12-05T14:45:15.692476+00:00", "meta": {"OBJECT_NAME": "COSMOS 2251 DEB", "OBJECT_ID": "1993-036YA", "EPOCH": "2025-12-02T11:16:46.526880", "MEAN_MOTION": 14.6043687, "ECCENTRICITY": 0.00070971, "INCLINATION": 74.0418, "RA_OF_ASC_NODE": 149.4617, "ARG_OF_PERICENTER": 243.0574, "MEAN_ANOMALY": 147.946, "EPHEMERIS_TYPE": 0, "CLASSIFICATION_TYPE": "U", "NORAD_CAT_ID": 34680, "ELEMENT_SET_NO": 999, "REV_AT_EPOCH": 88178, "BSTAR": 0.0013755581, "MEAN_MOTION_DOT": 6.644e-05, "MEAN_MOTION_DDOT": 0}, "tle": {"line1": "1 34680U 93036YA  25336.46998295  .00006644  00000+0  13756-2 0  9996", "line2": "2 34680  74.0418 149.4617 0007097 243.0574 147.9460 14.60436870881789"}}, "geometry": {"type": "Point", "coordinates": [142.99610025325603, -1.6251028592847039]}}]}